CBERS 4                 
1 40336U 14079A   20183.12036689 -.00000011  00000-0  11369-4 0  9993
2 40336  98.5612 254.6716 0001747  78.0942 282.0442 14.35414592291641
CZ-4B R/B               
1 40337U 14079B   20182.92745284 -.00000033  00000-0  42333-5 0  9999
2 40337  98.4575  69.5671 0175402 265.0427  93.0744 14.89383497302385
